[Satellite]
VERSION=1.1
NAME=DEORBITSAIL
NICKNAME=DEORBITSAIL
TLE1=1 40719U 15032E   19311.33405710  .00000359  00000-0  58237-4 0  9996
TLE2=2 40719  97.8906 200.1495 0015511 205.1873 154.8582 14.76833231233168
STATUS=0
